STARLINK-11369 [DTC]    
1 62095U 24220H   25083.91137713 -.00002063  00000+0 -12596-4 0  9991
2 62095  43.0003 351.2856 0001202 244.9586 115.1157 15.70835027 20042
STARLINK-11303 [DTC]    
1 62096U 24220J   25083.90606530 -.00001249  00000+0 -62392-5 0  9994
2 62096  42.9976 351.2422 0001379 250.0052 110.0667 15.70836541 20042
STARLINK-11367 [DTC]    
1 62097U 24220K   25084.02792818  .00003426  00000+0  30218-4 0  9992
2 62097  43.0015 350.4336 0002287 300.0770  59.9871 15.70813532 20061
STARLINK-11386 [DTC]    
1 62098U 24220L   25084.02262583  .00003523  00000+0  30976-4 0  9993
2 62098  43.0029 350.3909 0000623 261.2250  98.8547 15.70807455 19961
STARLINK-11380 [DTC]    
1 62099U 24220M   25084.01730711  .00006977  00000+0  57917-4 0  9996
2 62099  43.0010 350.3475 0001583 286.6371  73.4323 15.70800682 19967
STARLINK-33545          
1 62101U 24220P   25083.80372962  .00001807  00000+0  75164-4 0  9997
2 62101  42.9981  21.2613 0000851 253.2228 106.8530 15.27587378 19510
STARLINK-33562          
1 62102U 24220Q   25083.81530731 -.00001141  00000+0 -31933-4 0  9998
2 62102  43.0047  21.3434 0001095 232.3986 127.6766 15.27590532 19516
STARLINK-33554          
1 62103U 24220R   25083.86527677  .00004892  00000+0  18725-3 0  9996
2 62103  43.0050  20.8638 0001504 282.9181  77.1503 15.27566200 19450
STARLINK-33555          
1 62104U 24220S   25083.83329580  .00003447  00000+0  13478-3 0  9992
2 62104  43.0034  21.4757 0001685 293.7533  66.3142 15.27568563 19658
STARLINK-33542          
1 62105U 24220T   25083.91667824 -.00073129  00000+0 -33774-3 0  9995
2 62105  42.9861 345.7670 0000648 285.0594 111.9286 15.82634792  6022
STARLINK-33559          
1 62107U 24220V   25083.89481585  .00006892  00000+0  25992-3 0  9996
2 62107  43.0029  21.0776 0002211 273.2789  86.7809 15.27557853 19694
STARLINK-33553          
1 62108U 24220W   25084.14863490  .00011660  00000+0  43272-3 0  9995
2 62108  43.0053  19.5477 0000992 265.4109  94.6629 15.27567162 19732
STARLINK-33556          
1 62109U 24220X   25083.87298720  .00013657  00000+0  50506-3 0  9999
2 62109  43.0037  20.9188 0001446 314.9441  45.1293 15.27568570 19714
STARLINK-33551          
1 62110U 24220Y   25083.10633731 -.00003431  00000+0 -11520-3 0  9996
2 62110  43.0046  25.4778 0001216 250.3892 109.6828 15.27587097 19578
STARLINK-32311          
1 62114U 24222A   25083.90204841  .00025226  00000+0  63507-3 0  9992
2 62114  43.0015 308.1319 0002084 291.5992  68.4642 15.39432806 19444
STARLINK-32470          
1 62115U 24222B   25083.36615721 -.00002761  00000+0 -90865-4 0  9995
2 62115  42.9986 314.4503 0000315 356.9735   3.1114 15.27584450 19328
STARLINK-32502          
1 62116U 24222C   25083.91107621  .00005202  00000+0  19846-3 0  9992
2 62116  43.0009 311.6486 0001267 281.8085  78.2624 15.27574550 19304
STARLINK-32549          
1 62118U 24222E   25084.00585734  .00007338  00000+0  27582-3 0  9998
2 62118  43.0046 310.6470 0001157 263.3130  96.7590 15.27589476 19336
STARLINK-32548          
1 62120U 24222G   25083.99062062 -.00002264  00000+0 -72853-4 0  9999
2 62120  43.0066 311.3912 0001313 274.3289  85.7413 15.27539781 19269
STARLINK-32525          
1 62121U 24222H   25083.94690355  .00003715  00000+0  14438-3 0  9991
2 62121  43.0055 311.0645 0001561 262.9185  97.1489 15.27594653 19260
STARLINK-32628          
1 62122U 24222J   25083.89950042  .00010198  00000+0  37954-3 0  9999
2 62122  43.0025 311.5642 0001281 278.0733  81.9973 15.27586001 19409
STARLINK-32608          
1 62124U 24222L   25083.95846189  .00004918  00000+0  18806-3 0  9992
2 62124  43.0048 311.1515 0001564 284.6577  75.4101 15.27594491 19250
