"OBJECT_NAME","OBJECT_ID","EPOCH","MEAN_MOTION","ECCENTRICITY","INCLINATION","RA_OF_ASC_NODE","ARG_OF_PERICENTER","MEAN_ANOMALY","EPHEMERIS_TYPE","CLASSIFICATION_TYPE","NORAD_CAT_ID","ELEMENT_SET_NO","REV_AT_EPOCH","BSTAR","MEAN_MOTION_DOT","MEAN_MOTION_DDOT"
"STARLINK-11369 [DTC]","2024-220H","2025-03-24T21:52:22.984032",15.70835027,0.0001202,43.0003,351.2856,244.9586,115.1157,0,"U",62095,999,2004,-0.000012596,-0.00002063,0
"STARLINK-11303 [DTC]","2024-220J","2025-03-24T21:44:44.041920",15.70836541,0.0001379,42.9976,351.2422,250.0052,110.0667,0,"U",62096,999,2004,-0.0000062392,-0.00001249,0
"STARLINK-11367 [DTC]","2024-220K","2025-03-25T00:40:12.994752",15.70813532,0.0002287,43.0015,350.4336,300.077,59.9871,0,"U",62097,999,2006,0.000030218,0.00003426,0
"STARLINK-11386 [DTC]","2024-220L","2025-03-25T00:32:34.871712",15.70807455,0.0000623,43.0029,350.3909,261.225,98.8547,0,"U",62098,999,1996,0.000030976,0.00003523,0
"STARLINK-11380 [DTC]","2024-220M","2025-03-25T00:24:55.334304",15.70800682,0.0001583,43.001,350.3475,286.6371,73.4323,0,"U",62099,999,1996,0.000057917,0.00006977,0
"STARLINK-33545","2024-220P","2025-03-24T19:17:22.239168",15.27587378,0.0000851,42.9981,21.2613,253.2228,106.853,0,"U",62101,999,1951,0.000075164,0.00001807,0
"STARLINK-33562","2024-220Q","2025-03-24T19:34:02.551584",15.27590532,0.0001095,43.0047,21.3434,232.3986,127.6766,0,"U",62102,999,1951,-0.000031933,-0.00001141,0
"STARLINK-33554","2024-220R","2025-03-24T20:45:59.912928",15.275662,0.0001504,43.005,20.8638,282.9181,77.1503,0,"U",62103,999,1945,0.00018725,0.00004892,0
"STARLINK-33555","2024-220S","2025-03-24T19:59:56.757120",15.27568563,0.0001685,43.0034,21.4757,293.7533,66.3142,0,"U",62104,999,1965,0.00013478,0.00003447,0
"STARLINK-33542","2024-220T","2025-03-24T22:00:00.999936",15.82634792,0.0000648,42.9861,345.767,285.0594,111.9286,0,"U",62105,999,602,-0.00033774,-0.00073129,0
"STARLINK-33559","2024-220V","2025-03-24T21:28:32.089440",15.27557853,0.0002211,43.0029,21.0776,273.2789,86.7809,0,"U",62107,999,1969,0.00025992,0.00006892,0
"STARLINK-33553","2024-220W","2025-03-25T03:34:02.055360",15.27567162,0.0000992,43.0053,19.5477,265.4109,94.6629,0,"U",62108,999,1973,0.00043272,0.0001166,0
"STARLINK-33556","2024-220X","2025-03-24T20:57:06.094080",15.2756857,0.0001446,43.0037,20.9188,314.9441,45.1293,0,"U",62109,999,1971,0.00050506,0.00013657,0
"STARLINK-33551","2024-220Y","2025-03-24T02:33:07.543584",15.27587097,0.0001216,43.0046,25.4778,250.3892,109.6828,0,"U",62110,999,1957,-0.0001152,-0.00003431,0
"STARLINK-32311","2024-222A","2025-03-24T21:38:56.982624",15.39432806,0.0002084,43.0015,308.1319,291.5992,68.4642,0,"U",62114,999,1944,0.00063507,0.00025226,0
"STARLINK-32470","2024-222B","2025-03-24T08:47:15.982944",15.2758445,0.0000315,42.9986,314.4503,356.9735,3.1114,0,"U",62115,999,1932,-0.000090865,-0.00002761,0
"STARLINK-32502","2024-222C","2025-03-24T21:51:56.984544",15.2757455,0.0001267,43.0009,311.6486,281.8085,78.2624,0,"U",62116,999,1930,0.00019846,0.00005202,0
"STARLINK-32549","2024-222E","2025-03-25T00:08:26.074176",15.27589476,0.0001157,43.0046,310.647,263.313,96.759,0,"U",62118,999,1933,0.00027582,0.00007338,0
"STARLINK-32548","2024-222G","2025-03-24T23:46:29.621568",15.27539781,0.0001313,43.0066,311.3912,274.3289,85.7413,0,"U",62120,999,1926,-0.000072853,-0.00002264,0
"STARLINK-32525","2024-222H","2025-03-24T22:43:32.466720",15.27594653,0.0001561,43.0055,311.0645,262.9185,97.1489,0,"U",62121,999,1926,0.00014438,0.00003715,0
"STARLINK-32628","2024-222J","2025-03-24T21:35:16.836288",15.27586001,0.0001281,43.0025,311.5642,278.0733,81.9973,0,"U",62122,999,1940,0.00037954,0.00010198,0
"STARLINK-32608","2024-222L","2025-03-24T23:00:11.107296",15.27594491,0.0001564,43.0048,311.1515,284.6577,75.4101,0,"U",62124,999,1925,0.00018806,0.00004918,0
